start=new Date('2021-12-25T00:00:00.000Z').valueOf();
sats=[{"FILE":"3250462","MEAN_ELEMENT_THEORY":"SGP4","DECAY_DATE":null,"RCS_SIZE":"LARGE","CENTER_NAME":"EARTH","TLE_LINE2":"2 49147  69.9981 200.7352 0003644 272.9758 238.4531 15.69728011  3666","COUNTRY_CODE":"US","EPOCH":"2021-12-24T22:00:00.999936","ARG_OF_PERICENTER":"272.9758","APOAPSIS":"362.132","MEAN_ANOMALY":"238.4531","MEAN_MOTION_DDOT":"0.0000000000000","CLASSIFICATION_TYPE":"U","PERIAPSIS":"357.222","NORAD_CAT_ID":"49147","LAUNCH_DATE":"2021-09-14","OBJECT_NAME":"STARLINK-3071","SEMIMAJOR_AXIS":"6737.812","GP_ID":"192398656","MEAN_MOTION":"15.69728011","OBJECT_TYPE":"PAYLOAD","PERIOD":"91.736","TLE_LINE1":"1 49147U 21082T   21358.91667824 -.00025547  00000-0 -21305-3 0  9999","REF_FRAME":"TEME","RA_OF_ASC_NODE":"200.7352","SITE":"AFWTR","ECCENTRICITY":"0.00036440","TIME_SYSTEM":"UTC","OBJECT_ID":"2021-082T","INCLINATION":"69.9981","REV_AT_EPOCH":"366","ELEMENT_SET_NO":"999","BSTAR":"-0.00021305000000","EPHEMERIS_TYPE":"0","MEAN_MOTION_DOT":"-0.00025547"},{"MEAN_MOTION":"15.69709931","OBJECT_TYPE":"PAYLOAD","PERIOD":"91.737","TLE_LINE1":"1 49148U 21082U   21358.91667824  .00061520  00000-0  51421-3 0  9991","REF_FRAME":"TEME","RA_OF_ASC_NODE":"200.7302","TIME_SYSTEM":"UTC","OBJECT_ID":"2021-082U","SITE":"AFWTR","ECCENTRICITY":"0.00030010","ELEMENT_SET_NO":"999","INCLINATION":"69.9975","REV_AT_EPOCH":"368","BSTAR":"0.00051421000000","EPHEMERIS_TYPE":"0","MEAN_MOTION_DOT":"0.00061520","FILE":"3250462","MEAN_ELEMENT_THEORY":"SGP4","DECAY_DATE":null,"CENTER_NAME":"EARTH","RCS_SIZE":"LARGE","EPOCH":"2021-12-24T22:00:00.999936","TLE_LINE2":"2 49148  69.9975 200.7302 0003001 274.8843 247.2331 15.69709931  3686","COUNTRY_CODE":"US","APOAPSIS":"361.751","MEAN_ANOMALY":"247.2331","ARG_OF_PERICENTER":"274.8843","MEAN_MOTION_DDOT":"0.0000000000000","CLASSIFICATION_TYPE":"U","NORAD_CAT_ID":"49148","PERIAPSIS":"357.707","OBJECT_NAME":"STARLINK-3048","LAUNCH_DATE":"2021-09-14","SEMIMAJOR_AXIS":"6737.864","GP_ID":"192399835"},{"MEAN_MOTION_DDOT":"0.0000000000000","CLASSIFICATION_TYPE":"U","APOAPSIS":"555.578","MEAN_ANOMALY":"161.8041","ARG_OF_PERICENTER":"286.5544","SEMIMAJOR_AXIS":"6931.377","GP_ID":"192400071","NORAD_CAT_ID":"49149","PERIAPSIS":"550.906","OBJECT_NAME":"STARLINK-3053","LAUNCH_DATE":"2021-09-14","DECAY_DATE":null,"FILE":"3250462","MEAN_ELEMENT_THEORY":"SGP4","TLE_LINE2":"2 49149  70.0000 206.7962 0003370 286.5544 161.8041 15.04435091  3618","COUNTRY_CODE":"US","EPOCH":"2021-12-24T22:00:00.999936","CENTER_NAME":"EARTH","RCS_SIZE":"LARGE","ELEMENT_SET_NO":"999","REV_AT_EPOCH":"361","INCLINATION":"70.0000","BSTAR":"-0.05087100000000","EPHEMERIS_TYPE":"0","TIME_SYSTEM":"UTC","OBJECT_ID":"2021-082V","SITE":"AFWTR","ECCENTRICITY":"0.00033700","MEAN_MOTION_DOT":"-0.00666384","OBJECT_TYPE":"PAYLOAD","MEAN_MOTION":"15.04435091","REF_FRAME":"TEME","RA_OF_ASC_NODE":"206.7962","PERIOD":"95.717","TLE_LINE1":"1 49149U 21082V   21358.91667824 -.00666384  00000-0 -50871-1 0  9999"},{"MEAN_MOTION_DOT":"-0.00665892","SITE":"AFWTR","ECCENTRICITY":"0.00034260","OBJECT_ID":"2021-082W","TIME_SYSTEM":"UTC","EPHEMERIS_TYPE":"0","BSTAR":"-0.05071500000000","INCLINATION":"70.0000","REV_AT_EPOCH":"359","ELEMENT_SET_NO":"999","TLE_LINE1":"1 49150U 21082W   21358.91667824 -.00665892  00000-0 -50715-1 0  9991","PERIOD":"95.712","RA_OF_ASC_NODE":"206.7997","REF_FRAME":"TEME","MEAN_MOTION":"15.04519817","OBJECT_TYPE":"PAYLOAD","LAUNCH_DATE":"2021-09-14","OBJECT_NAME":"STARLINK-3104","PERIAPSIS":"550.607","NORAD_CAT_ID":"49150","GP_ID":"192398892","SEMIMAJOR_AXIS":"6931.117","ARG_OF_PERICENTER":"289.9574","APOAPSIS":"555.357","MEAN_ANOMALY":"179.0140","CLASSIFICATION_TYPE":"U","MEAN_MOTION_DDOT":"0.0000000000000","RCS_SIZE":"LARGE","CENTER_NAME":"EARTH","COUNTRY_CODE":"US","TLE_LINE2":"2 49150  70.0000 206.7997 0003426 289.9574 179.0140 15.04519817  3597","EPOCH":"2021-12-24T22:00:00.999936","MEAN_ELEMENT_THEORY":"SGP4","FILE":"3250462","DECAY_DATE":null},{"MEAN_MOTION_DOT":"0.00059246","ELEMENT_SET_NO":"999","INCLINATION":"69.9987","REV_AT_EPOCH":"366","BSTAR":"0.00049540000000","EPHEMERIS_TYPE":"0","OBJECT_ID":"2021-082X","TIME_SYSTEM":"UTC","ECCENTRICITY":"0.00033410","SITE":"AFWTR","REF_FRAME":"TEME","RA_OF_ASC_NODE":"200.7189","PERIOD":"91.737","TLE_LINE1":"1 49151U 21082X   21358.91667824  .00059246  00000-0  49540-3 0  9996","OBJECT_TYPE":"PAYLOAD","MEAN_MOTION":"15.69708701","SEMIMAJOR_AXIS":"6737.867","GP_ID":"192399128","NORAD_CAT_ID":"49151","PERIAPSIS":"357.481","OBJECT_NAME":"STARLINK-3102","LAUNCH_DATE":"2021-09-14","MEAN_MOTION_DDOT":"0.0000000000000","CLASSIFICATION_TYPE":"U","APOAPSIS":"361.984","MEAN_ANOMALY":"250.6499","ARG_OF_PERICENTER":"273.5878","TLE_LINE2":"2 49151  69.9987 200.7189 0003341 273.5878 250.6499 15.69708701  3662","COUNTRY_CODE":"US","EPOCH":"2021-12-24T22:00:00.999936","CENTER_NAME":"EARTH","RCS_SIZE":"LARGE","DECAY_DATE":null,"FILE":"3250462","MEAN_ELEMENT_THEORY":"SGP4"},{"LAUNCH_DATE":"2021-09-14","OBJECT_NAME":"STARLINK-3081","PERIAPSIS":"357.332","NORAD_CAT_ID":"49152","GP_ID":"192399365","SEMIMAJOR_AXIS":"6737.792","ARG_OF_PERICENTER":"274.9023","APOAPSIS":"361.983","MEAN_ANOMALY":"257.7627","CLASSIFICATION_TYPE":"U","MEAN_MOTION_DDOT":"0.0000000000000","RCS_SIZE":"LARGE","CENTER_NAME":"EARTH","EPOCH":"2021-12-24T22:00:00.999936","TLE_LINE2":"2 49152  69.9972 200.7150 0003452 274.9023 257.7627 15.69734936  3665","COUNTRY_CODE":"US","MEAN_ELEMENT_THEORY":"SGP4","FILE":"3250462","DECAY_DATE":null,"MEAN_MOTION_DOT":"0.00059606","SITE":"AFWTR","ECCENTRICITY":"0.00034520","TIME_SYSTEM":"UTC","OBJECT_ID":"2021-082Y","EPHEMERIS_TYPE":"0","BSTAR":"0.00049783000000","REV_AT_EPOCH":"366","INCLINATION":"69.9972","ELEMENT_SET_NO":"999","TLE_LINE1":"1 49152U 21082Y   21358.91667824  .00059606  00000-0  49783-3 0  9996","PERIOD":"91.735","RA_OF_ASC_NODE":"200.7150","REF_FRAME":"TEME","MEAN_MOTION":"15.69734936","OBJECT_TYPE":"PAYLOAD"},{"OBJECT_TYPE":"PAYLOAD","MEAN_MOTION":"15.69713211","REF_FRAME":"TEME","RA_OF_ASC_NODE":"200.7233","PERIOD":"91.737","TLE_LINE1":"1 49153U 21082Z   21358.91667824  .00063939  00000-0  53412-3 0  9995","ELEMENT_SET_NO":"999","REV_AT_EPOCH":"373","INCLINATION":"69.9975","BSTAR":"0.00053412000000","EPHEMERIS_TYPE":"0","TIME_SYSTEM":"UTC","OBJECT_ID":"2021-082Z","ECCENTRICITY":"0.00032160","SITE":"AFWTR","MEAN_MOTION_DOT":"0.00063939","DECAY_DATE":null,"FILE":"3250462","MEAN_ELEMENT_THEORY":"SGP4","TLE_LINE2":"2 49153  69.9975 200.7233 0003216 271.7654 256.7235 15.69713211  3739","COUNTRY_CODE":"US","EPOCH":"2021-12-24T22:00:00.999936","CENTER_NAME":"EARTH","RCS_SIZE":"LARGE","MEAN_MOTION_DDOT":"0.0000000000000","CLASSIFICATION_TYPE":"U","APOAPSIS":"361.886","MEAN_ANOMALY":"256.7235","ARG_OF_PERICENTER":"271.7654","SEMIMAJOR_AXIS":"6737.855","GP_ID":"192399601","PERIAPSIS":"357.553","NORAD_CAT_ID":"49153","OBJECT_NAME":"STARLINK-3072","LAUNCH_DATE":"2021-09-14"},{"ECCENTRICITY":"0.00033960","SITE":"AFWTR","TIME_SYSTEM":"UTC","OBJECT_ID":"2021-082AA","BSTAR":"0.00049752000000","EPHEMERIS_TYPE":"0","REV_AT_EPOCH":"366","INCLINATION":"69.9978","ELEMENT_SET_NO":"999","MEAN_MOTION_DOT":"0.00059540","MEAN_MOTION":"15.69723668","OBJECT_TYPE":"PAYLOAD","TLE_LINE1":"1 49154U 21082AA  21358.91667824  .00059540  00000-0  49752-3 0  9991","PERIOD":"91.736","RA_OF_ASC_NODE":"200.7171","REF_FRAME":"TEME","ARG_OF_PERICENTER":"275.1450","MEAN_ANOMALY":"259.6227","APOAPSIS":"361.978","CLASSIFICATION_TYPE":"U","MEAN_MOTION_DDOT":"0.0000000000000","LAUNCH_DATE":"2021-09-14","OBJECT_NAME":"STARLINK-3068","PERIAPSIS":"357.401","NORAD_CAT_ID":"49154","GP_ID":"192398421","SEMIMAJOR_AXIS":"6737.825","MEAN_ELEMENT_THEORY":"SGP4","FILE":"3250462","DECAY_DATE":null,"RCS_SIZE":"LARGE","CENTER_NAME":"EARTH","TLE_LINE2":"2 49154  69.9978 200.7171 0003396 275.1450 259.6227 15.69723668  3667","EPOCH":"2021-12-24T22:00:00.999936","COUNTRY_CODE":"US"},{"APOAPSIS":"362.134","MEAN_ANOMALY":"249.7848","ARG_OF_PERICENTER":"280.8258","MEAN_MOTION_DDOT":"0.0000000000000","CLASSIFICATION_TYPE":"U","NORAD_CAT_ID":"49155","PERIAPSIS":"357.486","OBJECT_NAME":"STARLINK-3060","LAUNCH_DATE":"2021-09-14","SEMIMAJOR_AXIS":"6737.945","GP_ID":"192398657","FILE":"3250462","MEAN_ELEMENT_THEORY":"SGP4","DECAY_DATE":null,"CENTER_NAME":"EARTH","RCS_SIZE":"LARGE","COUNTRY_CODE":"US","TLE_LINE2":"2 49155  69.9985 200.7114 0003449 280.8258 249.7848 15.69681560  3686","EPOCH":"2021-12-24T22:00:00.999936","OBJECT_ID":"2021-082AB","TIME_SYSTEM":"UTC","SITE":"AFWTR","ECCENTRICITY":"0.00034490","ELEMENT_SET_NO":"999","INCLINATION":"69.9985","REV_AT_EPOCH":"368","BSTAR":"0.00051735000000","EPHEMERIS_TYPE":"0","MEAN_MOTION_DOT":"0.00061831","MEAN_MOTION":"15.69681560","OBJECT_TYPE":"PAYLOAD","PERIOD":"91.738","TLE_LINE1":"1 49155U 21082AB  21358.91667824  .00061831  00000-0  51735-3 0  9992","REF_FRAME":"TEME","RA_OF_ASC_NODE":"200.7114"},{"ECCENTRICITY":"0.00035940","SITE":"AFWTR","TIME_SYSTEM":"UTC","OBJECT_ID":"2021-082AC","INCLINATION":"69.9984","REV_AT_EPOCH":"366","ELEMENT_SET_NO":"999","EPHEMERIS_TYPE":"0","BSTAR":"0.00044933000000","MEAN_MOTION_DOT":"0.00053670","MEAN_MOTION":"15.69703114","OBJECT_TYPE":"PAYLOAD","PERIOD":"91.737","TLE_LINE1":"1 49156U 21082AC  21358.91667824  .00053670  00000-0  44933-3 0  9997","REF_FRAME":"TEME","RA_OF_ASC_NODE":"200.7007","ARG_OF_PERICENTER":"274.5148","APOAPSIS":"362.170","MEAN_ANOMALY":"266.7544","MEAN_MOTION_DDOT":"0.0000000000000","CLASSIFICATION_TYPE":"U","PERIAPSIS":"357.327","NORAD_CAT_ID":"49156","LAUNCH_DATE":"2021-09-14","OBJECT_NAME":"STARLINK-3085","SEMIMAJOR_AXIS":"6737.883","GP_ID":"192399836","FILE":"3250462","MEAN_ELEMENT_THEORY":"SGP4","DECAY_DATE":null,"RCS_SIZE":"LARGE","CENTER_NAME":"EARTH","TLE_LINE2":"2 49156  69.9984 200.7007 0003594 274.5148 266.7544 15.69703114  3666","COUNTRY_CODE":"US","EPOCH":"2021-12-24T22:00:00.999936"}];
